{
    "week": 293,
    "satellites": [
        {
            "Name": "GSAT0218 (GALILEO 22)",
            "Line1": "1 43058U 17079D   24324.31045254 -.00000013  00000+0  00000+0 0  9996",
            "Line2": "2 43058  55.2742 237.3251 0003849 291.5038  68.5024  1.70473741 43211",
            "SatelliteNumber": "43058",
            "Classification": "U",
            "LaunchYear": "17",
            "LaunchNumber": "079",
            "PieceOfLaunch": "D",
            "EpochYear": "24",
            "EpochDay": 324.31045254,
            "FirstDerivativeMeanMotion": -1.3e-07,
            "SecondDerivativeMeanMotion": "00000+0",
            "BSTAR": "00000+0",
            "SetNumber": "999",
            "Inclination": 55.2742,
            "RAAN": 237.3251,
            "Eccentricity": 0.0003849,
            "ArgumentOfPerigee": 291.5038,
            "MeanAnomaly": 68.5024,
            "MeanMotion": 1.70473741,
            "RevolutionNumber": "4321"
        },
        {
            "Name": "GSAT0221 (GALILEO 25)",
            "Line1": "1 43564U 18060A   24324.79812407 -.00000095  00000+0  00000+0 0  9993",
            "Line2": "2 43564  57.2959 357.2777 0006056 272.4283  87.5530  1.70475956 39378",
            "SatelliteNumber": "43564",
            "Classification": "U",
            "LaunchYear": "18",
            "LaunchNumber": "060",
            "PieceOfLaunch": "A",
            "EpochYear": "24",
            "EpochDay": 324.79812407,
            "FirstDerivativeMeanMotion": -9.5e-07,
            "SecondDerivativeMeanMotion": "00000+0",
            "BSTAR": "00000+0",
            "SetNumber": "999",
            "Inclination": 57.2959,
            "RAAN": 357.2777,
            "Eccentricity": 0.0006056,
            "ArgumentOfPerigee": 272.4283,
            "MeanAnomaly": 87.553,
            "MeanMotion": 1.70475956,
            "RevolutionNumber": "3937"
        },
        {
            "Name": "GSAT0222 (GALILEO 26)",
            "Line1": "1 43565U 18060B   24323.84369234 -.00000094  00000+0  00000+0 0  9993",
            "Line2": "2 43565  57.3004 357.3057 0005720 250.5155 109.4755  1.70475764 39409",
            "SatelliteNumber": "43565",
            "Classification": "U",
            "LaunchYear": "18",
            "LaunchNumber": "060",
            "PieceOfLaunch": "B",
            "EpochYear": "24",
            "EpochDay": 323.84369234,
            "FirstDerivativeMeanMotion": -9.4e-07,
            "SecondDerivativeMeanMotion": "00000+0",
            "BSTAR": "00000+0",
            "SetNumber": "999",
            "Inclination": 57.3004,
            "RAAN": 357.3057,
            "Eccentricity": 0.000572,
            "ArgumentOfPerigee": 250.5155,
            "MeanAnomaly": 109.4755,
            "MeanMotion": 1.70475764,
            "RevolutionNumber": "3940"
        },
        {
            "Name": "GSAT0219 (GALILEO 23)",
            "Line1": "1 43566U 18060C   24325.23851626 -.00000095  00000+0  00000+0 0  9991",
            "Line2": "2 43566  57.2987 357.2698 0005154 276.4197  83.5716  1.70475972 39403",
            "SatelliteNumber": "43566",
            "Classification": "U",
            "LaunchYear": "18",
            "LaunchNumber": "060",
            "PieceOfLaunch": "C",
            "EpochYear": "24",
            "EpochDay": 325.23851626,
            "FirstDerivativeMeanMotion": -9.5e-07,
            "SecondDerivativeMeanMotion": "00000+0",
            "BSTAR": "00000+0",
            "SetNumber": "999",
            "Inclination": 57.2987,
            "RAAN": 357.2698,
            "Eccentricity": 0.0005154,
            "ArgumentOfPerigee": 276.4197,
            "MeanAnomaly": 83.5716,
            "MeanMotion": 1.70475972,
            "RevolutionNumber": "3940"
        },
        {
            "Name": "GSAT0220 (GALILEO 24)",
            "Line1": "1 43567U 18060D   24325.45925752 -.00000095  00000+0  00000+0 0  9998",
            "Line2": "2 43567  57.2983 357.2636 0005618 273.9694  86.0161  1.70475896 39385",
            "SatelliteNumber": "43567",
            "Classification": "U",
            "LaunchYear": "18",
            "LaunchNumber": "060",
            "PieceOfLaunch": "D",
            "EpochYear": "24",
            "EpochDay": 325.45925752,
            "FirstDerivativeMeanMotion": -9.5e-07,
            "SecondDerivativeMeanMotion": "00000+0",
            "BSTAR": "00000+0",
            "SetNumber": "999",
            "Inclination": 57.2983,
            "RAAN": 357.2636,
            "Eccentricity": 0.0005618,
            "ArgumentOfPerigee": 273.9694,
            "MeanAnomaly": 86.0161,
            "MeanMotion": 1.70475896,
            "RevolutionNumber": "3938"
        },
        {
            "Name": "GSAT0223 (GALILEO 27)",
            "Line1": "1 49809U 21116A   24325.24768271 -.00000095  00000+0  00000+0 0  9997",
            "Line2": "2 49809  57.2884 357.1626 0004373 236.5383  84.1354  1.70476055 18394",
            "SatelliteNumber": "49809",
            "Classification": "U",
            "LaunchYear": "21",
            "LaunchNumber": "116",
            "PieceOfLaunch": "A",
            "EpochYear": "24",
            "EpochDay": 325.24768271,
            "FirstDerivativeMeanMotion": -9.5e-07,
            "SecondDerivativeMeanMotion": "00000+0",
            "BSTAR": "00000+0",
            "SetNumber": "999",
            "Inclination": 57.2884,
            "RAAN": 357.1626,
            "Eccentricity": 0.0004373,
            "ArgumentOfPerigee": 236.5383,
            "MeanAnomaly": 84.1354,
            "MeanMotion": 1.70476055,
            "RevolutionNumber": "1839"
        },
        {
            "Name": "GSAT0224 (GALILEO 28)",
            "Line1": "1 49810U 21116B   24324.54737208 -.00000095  00000+0  00000+0 0  9997",
            "Line2": "2 49810  57.2892 357.1800 0004237 243.6316 119.7660  1.70476039 18413",
            "SatelliteNumber": "49810",
            "Classification": "U",
            "LaunchYear": "21",
            "LaunchNumber": "116",
            "PieceOfLaunch": "B",
            "EpochYear": "24",
            "EpochDay": 324.54737208,
            "FirstDerivativeMeanMotion": -9.5e-07,
            "SecondDerivativeMeanMotion": "00000+0",
            "BSTAR": "00000+0",
            "SetNumber": "999",
            "Inclination": 57.2892,
            "RAAN": 357.18,
            "Eccentricity": 0.0004237,
            "ArgumentOfPerigee": 243.6316,
            "MeanAnomaly": 119.766,
            "MeanMotion": 1.70476039,
            "RevolutionNumber": "1841"
        },
        {
            "Name": "GSAT0225 (GALILEO 29)",
            "Line1": "1 59598U 24079A   24324.55307038  .00000035  00000+0  00000+0 0  9990",
            "Line2": "2 59598  54.7827 117.1589 0002524 161.2148 196.6844  1.70474741  3511",
            "SatelliteNumber": "59598",
            "Classification": "U",
            "LaunchYear": "24",
            "LaunchNumber": "079",
            "PieceOfLaunch": "A",
            "EpochYear": "24",
            "EpochDay": 324.55307038,
            "FirstDerivativeMeanMotion": 3.5e-07,
            "SecondDerivativeMeanMotion": "00000+0",
            "BSTAR": "00000+0",
            "SetNumber": "999",
            "Inclination": 54.7827,
            "RAAN": 117.1589,
            "Eccentricity": 0.0002524,
            "ArgumentOfPerigee": 161.2148,
            "MeanAnomaly": 196.6844,
            "MeanMotion": 1.70474741,
            "RevolutionNumber": "351"
        },
        {
            "Name": "GSAT0227 (GALILEO 30)",
            "Line1": "1 59600U 24079C   24323.56661993  .00000033  00000+0  00000+0 0  9995",
            "Line2": "2 59600  54.7769 117.1878 0003831 115.6955 244.3160  1.70474673  3563",
            "SatelliteNumber": "59600",
            "Classification": "U",
            "LaunchYear": "24",
            "LaunchNumber": "079",
            "PieceOfLaunch": "C",
            "EpochYear": "24",
            "EpochDay": 323.56661993,
            "FirstDerivativeMeanMotion": 3.3e-07,
            "SecondDerivativeMeanMotion": "00000+0",
            "BSTAR": "00000+0",
            "SetNumber": "999",
            "Inclination": 54.7769,
            "RAAN": 117.1878,
            "Eccentricity": 0.0003831,
            "ArgumentOfPerigee": 115.6955,
            "MeanAnomaly": 244.316,
            "MeanMotion": 1.70474673,
            "RevolutionNumber": "356"
        },
        {
            "Name": "GSAT0232 (GALILEO 32)",
            "Line1": "1 61182U 24167A   24321.21686440 -.00000004  00000+0  00000+0 0  9994",
            "Line2": "2 61182  55.3884 237.1378 0015743 276.0571  83.7985  1.73178105  1028",
            "SatelliteNumber": "61182",
            "Classification": "U",
            "LaunchYear": "24",
            "LaunchNumber": "167",
            "PieceOfLaunch": "A",
            "EpochYear": "24",
            "EpochDay": 321.2168644,
            "FirstDerivativeMeanMotion": -4e-08,
            "SecondDerivativeMeanMotion": "00000+0",
            "BSTAR": "00000+0",
            "SetNumber": "999",
            "Inclination": 55.3884,
            "RAAN": 237.1378,
            "Eccentricity": 0.0015743,
            "ArgumentOfPerigee": 276.0571,
            "MeanAnomaly": 83.7985,
            "MeanMotion": 1.73178105,
            "RevolutionNumber": "102"
        }
    ]
}